OBJECT_NAME,OBJECT_ID,EPOCH,MEAN_MOTION,ECCENTRICITY,INCLINATION,RA_OF_ASC_NODE,ARG_OF_PERICENTER,MEAN_ANOMALY,EPHEMERIS_TYPE,CLASSIFICATION_TYPE,NORAD_CAT_ID,ELEMENT_SET_NO,REV_AT_EPOCH,BSTAR,MEAN_MOTION_DOT,MEAN_MOTION_DDOT
IRIDIUM 33 DEB,1997-051QD,2022-06-14T16:28:28.093728,14.58010252,.0030175,86.4294,262.0830,2.3503,357.7842,0,U,35483,999,68817,.26058E-2,.12076E-3,0
IRIDIUM 33 DEB,1997-051QE,2022-06-14T08:18:21.660192,14.52445936,.0049373,86.3823,199.8791,203.1280,156.7704,0,U,35484,999,43282,.56101E-3,.2344E-4,0
IRIDIUM 33 DEB,1997-051QH,2022-06-15T02:30:57.610080,14.72765689,.003877,86.3304,194.7394,202.2600,213.3624,0,U,35487,999,69089,.4559E-2,.2958E-3,0
IRIDIUM 33 DEB,1997-051QJ,2022-06-13T09:20:52.897632,14.57425066,.0043274,86.3379,154.4720,114.8757,245.6960,0,U,35488,999,69520,.46401E-3,.2154E-4,0
GOES 14,2009-033A,2022-06-15T10:20:03.909120,1.00269739,.0012004,0.3163,95.3738,115.0799,103.6280,0,U,35491,999,4748,0,-.88E-6,0
DELTA 4 R/B,2009-033B,2022-06-14T19:40:38.483040,1.93162498,.5202606,13.1605,262.1067,152.6649,12.1632,0,U,35492,999,9148,0,-.146E-5,0
FM-5,2009-034A,2022-06-15T01:10:01.289856,1.00269764,.0000749,0.0102,344.1586,85.9036,124.6097,0,U,35493,999,4730,0,-.195E-5,0
BREEZE-M R/B,2009-034B,2022-06-15T09:15:36.181152,2.04379811,.6117863,22.6304,142.2607,296.4566,288.9291,0,U,35494,999,9674,0,-.414E-5,0
BREEZE-M DEB [TANK],2009-034C,2022-06-13T10:46:10.598592,5.61475206,.5008034,49.5661,228.0347,97.6589,319.6291,0,U,35495,999,25968,.5726E-3,.3951E-4,0
TERRESTAR-1,2009-035A,2022-06-14T13:43:20.249760,1.00271454,.0002666,3.1953,38.5435,44.0501,275.0666,0,U,35496,999,4748,0,-.52E-6,0
COSMOS 2451,2009-036A,2022-06-14T20:00:56.148480,12.40828814,.0007633,82.4878,280.3169,143.8427,216.3168,0,U,35498,999,58621,-.70103E-4,0,0
COSMOS 2452,2009-036B,2022-06-15T08:02:49.182144,12.42939675,.0017381,82.4902,270.5994,92.6029,267.7041,0,U,35499,999,58716,.13921E-3,.29E-6,0
COSMOS 2453,2009-036C,2022-06-14T18:21:49.284864,12.41473631,.0008229,82.4889,276.9736,110.2278,249.9689,0,U,35500,999,58651,.26576E-4,.14E-6,0
SL-19 R/B,2009-036D,2022-06-15T04:24:48.589344,12.76625873,.0197219,82.4936,78.8295,90.5221,78.1383,0,U,35501,999,60315,.94254E-4,.35E-6,0
COSMOS 917 DEB,1977-047R,2022-06-11T22:03:04.415904,2.00440236,.6170966,70.3837,127.7238,208.5610,95.8445,0,U,35504,999,6186,0,-.746E-5,0
COSMOS 917 DEB,1977-047S,2022-06-14T18:49:35.394816,2.01698483,.7154793,63.8054,81.0645,40.4763,354.8446,0,U,35505,999,11638,0,-.597E-5,0
METEOR 2-5 DEB,1979-095Z,2022-06-15T12:20:31.161984,14.28229293,.0018222,81.1980,91.5396,80.7328,279.5913,0,U,35506,999,86018,.13527E-2,.3388E-4,0
COSMOS 1261 DEB,1981-031N,2022-06-11T00:17:08.372544,2.01825984,.7057127,64.1842,141.6720,40.9416,354.5230,0,U,35507,999,6881,0,.561E-5,0
SL-3 DEB,1982-116H,2022-06-14T18:06:54.859104,14.16762210,.0067808,81.2544,345.0491,109.7868,264.0668,0,U,35516,999,45269,.89842E-4,.197E-5,0
ARIANE 1 DEB,1986-019VQ,2022-06-13T22:03:22.269600,13.66027948,.0385558,98.8876,44.2304,168.0705,192.9902,0,U,35517,999,94307,.14536E-3,.162E-5,0
COSMOS 1818 COOLANT,1987-011J,2022-06-14T22:03:39.676608,14.34454986,.0016944,65.0116,348.4329,257.0631,102.8563,0,U,35518,999,71501,.20241E-3,.471E-5,0
SL-14 DEB,1987-068CN,2022-06-12T13:32:51.256032,14.38021066,.0016808,82.8395,210.7813,299.7323,60.2195,0,U,35519,999,55322,.99978E-3,.3046E-4,0
SL-14 DEB,1987-068CP,2022-06-14T18:33:50.482944,13.86281915,.0009946,82.5457,357.4287,179.5107,193.0479,0,U,35520,999,44282,.13921E-3,.176E-5,0
SL-14 DEB,1987-068CQ,2022-06-10T19:11:24.391104,13.87517220,.0010372,82.5565,2.4280,147.2720,225.3117,0,U,35521,999,45337,.17061E-3,.216E-5,0
SL-14 DEB,1987-068CR,2022-06-11T07:03:05.228928,13.86876988,.0018174,82.5480,4.3270,223.7003,261.3916,0,U,35522,999,45004,.19158E-3,.239E-5,0
SL-14 DEB,1987-068CS,2022-06-13T10:58:59.873088,14.01211661,.0013251,82.5222,239.6247,334.1093,25.9412,0,U,35523,999,42337,.1655E-2,.2503E-4,0
SL-14 DEB,1987-068CT,2022-06-13T10:04:30.884160,14.05059087,.003392,82.5152,220.1976,206.3745,153.5701,0,U,35524,999,97497,.13577E-2,.2213E-4,0
SL-14 DEB,1987-068CU,2022-06-13T23:53:16.181952,13.82787678,.0021321,82.5471,38.7494,27.4559,38.3328,0,U,35525,999,96194,.14387E-3,.172E-5,0
SCOUT G-1 DEB,1988-074R,2022-06-14T18:31:21.199296,13.54388095,.0085198,89.9066,349.0803,271.8749,102.7206,0,U,35528,999,40362,.71449E-3,.507E-5,0
SL-14 DEB,1991-068AX,2022-06-14T02:52:49.024704,12.44262834,.002553,82.7058,117.6675,183.9632,188.2902,0,U,35530,999,39703,.43544E-3,.72E-6,0
DMSP 5D-2 F11 DEB,1991-082CP,2022-06-14T04:30:15.652224,14.08970627,.0128111,98.7320,304.7547,341.3895,18.2613,0,U,35532,999,91683,.17298E-2,.3187E-4,0
DELTA 1 DEB,1975-052LG,2022-06-15T01:51:55.431360,14.33726900,.0017049,99.7491,15.3160,142.2601,12.6967,0,U,35533,999,99899,.23355E-2,.6448E-4,0
DMSP 5D-2 F11 DEB,1991-082CQ,2022-06-14T19:03:05.367168,14.30850219,.0055792,98.8742,170.7540,93.6713,78.6043,0,U,35534,999,54762,.19568E-2,.5179E-4,0
DELTA 1 DEB,1975-052LH,2022-06-15T09:36:44.392320,13.79058101,.0094061,98.9300,229.2435,234.3063,124.9309,0,U,35535,999,96506,.67983E-4,.3E-6,0
PSLV DEB,2001-049QL,2022-06-15T04:44:46.889952,13.73168885,.0424787,98.6154,328.0507,325.0565,32.3365,0,U,35536,999,94711,.28232E-3,.459E-5,0
BREEZE-M DEB,2006-006CF,2022-05-29T03:03:55.833120,5.05538662,.5084519,51.7469,134.4882,34.3650,14.9638,0,U,35538,999,16832,.95659E-2,.1638E-4,0
BREEZE-M DEB,2006-006CH,2022-06-13T12:08:42.649152,5.25108376,.5041983,52.1673,290.7341,103.0120,352.8578,0,U,35540,999,1244,.11601E-2,.419E-5,0
BREEZE-M DEB,2006-006CL,2022-06-15T06:33:36.529344,5.00415910,.5121028,52.7391,246.5525,130.0977,354.0025,0,U,35543,999,25380,-.27208E-2,-.486E-5,0
BREEZE-M DEB,2006-006CM,2022-06-14T13:58:56.427456,10.45665082,.2393163,51.3829,130.5201,205.5531,140.5020,0,U,35544,999,39619,.76969E-2,.81749E-3,0
BREEZE-M DEB,2006-006CN,2022-06-15T08:59:20.236992,13.77593460,.0864758,51.5008,162.7827,198.9935,157.6774,0,U,35545,999,46167,.12079E-1,.292582E-2,0
BREEZE-M DEB,2006-006CP,2022-06-14T12:56:29.561856,9.58422790,.2504009,51.2308,356.5873,170.4429,195.4976,0,U,35546,999,25808,.60101E-1,.38679E-3,0
CZ-3A DEB,2007-003F,2022-06-15T04:30:47.840544,5.87036056,.4777404,24.4886,118.6781,40.8583,346.5393,0,U,35547,999,21460,.12163E-1,.22518E-3,0
CZ-3A DEB,2007-003H,2022-06-14T17:11:31.589376,3.60515038,.6282175,24.1130,347.1844,246.4598,37.9656,0,U,35549,999,10389,.71081E-2,.21318E-3,0
CZ-3A DEB,2007-003J,2022-06-14T05:16:27.575040,1.97718490,.7445955,23.9172,124.3368,201.0715,94.5867,0,U,35550,999,10050,.70259E-3,-.31E-5,0
CZ-3A DEB,2007-003K,2022-06-12T12:33:21.588192,2.15254044,.724303,25.3290,349.8001,41.9514,355.2168,0,U,35551,999,11275,.61593E-3,-.42E-6,0
CZ-3A DEB,2007-003L,2022-06-14T05:19:40.491552,1.95388490,.7499537,25.2212,146.5617,91.4432,346.7210,0,U,35552,999,10142,.56835E-2,.1893E-4,0
CZ-3A DEB,2007-003N,2022-06-13T10:25:46.079040,1.84902480,.7470539,23.9925,273.5633,306.5847,6.0877,0,U,35554,999,9764,.94725E-2,.143E-5,0
CZ-3A DEB,2007-003Q,2022-06-11T20:19:32.560032,2.16029245,.7266942,26.0113,42.9320,279.9467,11.8358,0,U,35556,999,6394,.4513E-2,.383E-5,0
CZ-3A DEB,2007-003S,2022-06-14T16:07:24.827232,1.90478983,.7485752,22.2770,203.8415,96.2656,344.8955,0,U,35558,999,6250,-.80333E-3,.26E-6,0
CZ-3A DEB,2007-003U,2022-06-14T16:46:04.082304,2.17460571,.732719,23.6945,10.0238,71.1735,350.5734,0,U,35560,999,1026,.36488E-1,.24318E-3,0
CZ-4 DEB,2007-042G,2022-06-13T14:08:28.931136,14.14627582,.0016921,98.7029,120.3786,57.2036,303.0765,0,U,35567,999,45541,.267E-3,.471E-5,0
DELTA 2 DEB,2007-047D,2022-06-14T11:14:35.321568,6.61956816,.4500478,39.8794,230.6437,71.7851,331.1721,0,U,35568,999,26450,.5176E-3,.26063E-3,0
CZ-4B DEB,2008-053G,2022-06-14T16:36:17.539488,14.59904112,.0169439,97.7715,247.7478,112.4179,249.5069,0,U,35571,999,71706,.84558E-3,.4908E-4,0
CZ-4B DEB,2008-053J,2022-06-14T18:40:33.579552,14.63079364,.0163694,97.8159,279.2328,71.3503,290.5394,0,U,35573,999,71676,.69004E-3,.4252E-4,0
CZ-2D DEB,2008-056F,2022-06-14T20:39:00.174816,14.45392005,.0130568,98.3834,180.8062,82.2275,279.3718,0,U,35574,999,71076,.49943E-3,.1904E-4,0
YAOGAN 4 DEB,2008-061B,2022-06-14T13:33:06.496128,14.24850761,.0233572,97.7972,89.0670,260.1392,97.3350,0,U,35575,999,69983,.31302E-3,.927E-5,0
RAZAKSAT,2009-037A,2022-06-14T17:48:45.528768,14.67175530,.0016206,8.9881,326.7649,150.7630,209.3468,0,U,35578,999,69340,.67619E-4,.947E-5,0
FALCON 1 R/B,2009-037B,2022-06-15T03:17:21.562368,14.78724434,.0045304,9.0438,162.3612,118.9418,241.5326,0,U,35579,999,69841,.12098E-3,.1565E-4,0
COSMOS 2251 DEB,1993-036ALX,2022-06-13T17:25:47.183520,13.75973053,.0299261,73.9073,175.6057,64.3741,298.7974,0,U,35580,999,44634,.81285E-3,.1073E-4,0
COSMOS 2251 DEB,1993-036AMA,2022-06-15T12:57:55.848672,13.51874316,.0393229,73.9199,113.4111,14.4215,346.7736,0,U,35583,999,65280,.90014E-3,.937E-5,0
COSMOS 2251 DEB,1993-036AMB,2022-06-14T04:07:49.331136,14.26855550,.0129851,74.0866,86.6481,33.8498,327.0852,0,U,35584,999,67223,.30667E-2,.8119E-4,0
COSMOS 2251 DEB,1993-036AMC,2022-06-15T09:24:01.223712,13.68159133,.0329655,73.9760,304.8336,117.7106,277.0701,0,U,35585,999,66231,.10261E-2,.1256E-4,0
COSMOS 2251 DEB,1993-036AMD,2022-06-15T07:55:23.174112,13.49553988,.0412404,74.0199,182.4487,322.9976,46.8727,0,U,35586,999,65195,.39694E-3,.401E-5,0
COSMOS 2251 DEB,1993-036AME,2022-06-14T07:34:43.947552,14.65419742,.0111918,74.0067,12.6632,157.3957,203.2199,0,U,35587,999,47600,.1793E-3,.1029E-4,0
COSMOS 2251 DEB,1993-036AMJ,2022-06-14T13:14:11.354784,14.63459297,.0045185,73.9782,233.8998,316.1923,43.5663,0,U,35591,999,69540,.16256E-2,.8522E-4,0
COSMOS 2251 DEB,1993-036AMK,2022-06-14T03:10:13.574784,14.91914700,.0111885,74.0081,109.3653,189.0147,170.9031,0,U,35592,999,70950,.40338E-3,.4565E-4,0
COSMOS 2251 DEB,1993-036AML,2022-06-15T09:20:49.868448,14.17641143,.0112377,74.0891,48.7603,17.0837,343.4039,0,U,35593,999,67129,.46709E-3,.986E-5,0
